NORAD_CAT_ID,OBJECT_NAME,OBJECT_TYPE,EPOCH,MEAN_MOTION,ECCENTRICITY,INCLINATION,RA_OF_ASC_NODE,ARG_OF_PERICENTER,MEAN_ANOMALY,BSTAR,MEAN_MOTION_DOT,MEAN_MOTION_DDOT,TLE_LINE0,TLE_LINE1,TLE_LINE2,SEMIMAJOR_AXIS,PERIOD,APOGEE,PERIGEE,DECAYED
50203.0,STARLINK-3257,PAYLOAD,2022-01-17 22:00:00,15.73178832,0.000138,53.2155,215.144,77.146,259.0816,0.00039749,0.00055484,0.0,0 STARLINK-3257,1 50203U 21125AZ  22017.91667824  .00055484  00000-0  39749-3 0  9997,2 50203  53.2155 215.1440 0001380  77.1460 259.0816 15.73178832  5008,6727.956,91.534,350.749,348.892,0.0
50203.0,STARLINK-3257,PAYLOAD,2022-01-18 14:00:01,15.73193343,0.0001046,53.2155,211.8429,89.3087,64.8029,0.00025491,0.00035295,0.0,0 STARLINK-3257,1 50203U 21125AZ  22018.58334491  .00035295  00000-0  25491-3 0  9999,2 50203  53.2155 211.8429 0001046  89.3087  64.8029 15.73193343  5111,6727.9140000000025,91.534,350.483,349.075,0.0
50203.0,STARLINK-3257,PAYLOAD,2022-01-18 22:00:00,15.73201825,0.0001112,53.2157,210.1955,71.0315,172.0239,0.00042871,0.00059982,0.0,0 STARLINK-3257,1 50203U 21125AZ  22018.91667824  .00059982  00000-0  42871-3 0  9995,2 50203  53.2157 210.1955 0001112  71.0315 172.0239 15.73201825  3696,6727.89,91.533,350.50300000000016,349.00699999999995,0.0
50203.0,STARLINK-3257,PAYLOAD,2022-01-19 14:00:01,15.73248398,0.0001419,53.2159,206.8943,81.2117,339.7697,-0.00045799,-0.00064538,0.0,0 STARLINK-3257,1 50203U 21125AZ  22019.58334491 -.00064538  00000-0 -45799-3 0  9997,2 50203  53.2159 206.8943 0001419  81.2117 339.7697 15.73248398  5261,6727.757,91.53,350.577,348.668,0.0
50203.0,STARLINK-3257,PAYLOAD,2022-01-19 22:00:00,15.73175208,0.0001541999999999,53.2156,205.2467,71.4738,78.4716,0.00063489,0.00089341,0.0,0 STARLINK-3257,1 50203U 21125AZ  22019.91667824  .00089341  00000-0  63489-3 0  9996,2 50203  53.2156 205.2467 0001542  71.4738  78.4716 15.73175208  3692,6727.965999999999,91.535,350.86800000000005,348.793,0.0
50203.0,STARLINK-3257,PAYLOAD,2022-01-20 06:00:00,15.73256413,0.0001374,53.2154,203.5954,78.9051,159.9609,-0.00066092,-0.00092585,0.0,0 STARLINK-3257,1 50203U 21125AZ  22020.25001157 -.00092585  00000-0 -66092-3 0  9995,2 50203  53.2154 203.5954 0001374  78.9051 159.9609 15.73256413  5376,6727.734,91.53,350.524,348.675,0.0
50203.0,STARLINK-3257,PAYLOAD,2022-01-20 14:00:01,15.7318366,0.0001386999999999,53.2157,201.9458,81.5455,246.2611,-0.00044939,-0.00063174,0.0,0 STARLINK-3257,1 50203U 21125AZ  22020.58334491 -.00063174  00000-0 -44939-3 0  9999,2 50203  53.2157 201.9458 0001387  81.5455 246.2611 15.73183660  3714,6727.941999999999,91.534,350.74,348.874,0.0
50203.0,STARLINK-3257,PAYLOAD,2022-01-20 22:00:00,15.73117515,0.0001503,53.216,200.2984,70.6675,346.0293,0.00058583,0.00082113,0.0,0 STARLINK-3257,1 50203U 21125AZ  22020.91667824  .00082113  00000-0  58583-3 0  9997,2 50203  53.2160 200.2984 0001503  70.6675 346.0293 15.73117515  3684,6728.13,91.538,351.00699999999995,348.9840000000001,0.0
50203.0,STARLINK-3257,PAYLOAD,2022-01-21 08:00:01,15.73142097,0.0001419999999999,53.2162,198.2343,76.5592,181.2264,0.00051406,0.00071966,0.0,0 STARLINK-3257,1 50203U 21125AZ  22021.33334491  .00071966  00000-0  51406-3 0  9996,2 50203  53.2162 198.2343 0001420  76.5592 181.2264 15.73142097  5549,6728.06,91.537,350.881,348.97,0.0
50203.0,STARLINK-3257,PAYLOAD,2022-01-21 14:00:01,15.73197664,0.0001509,53.2164,196.9979,76.5642,157.878,2.828e-05,3.35e-05,0.0,0 STARLINK-3257,1 50203U 21125AZ  22021.58334491  .00003350  00000-0  28280-4 0  9990,2 50203  53.2164 196.9979 0001509  76.5642 157.8780 15.73197664  3703,6727.901999999999,91.533,350.782,348.75199999999984,0.0
50203.0,STARLINK-3257,PAYLOAD,2022-01-21 22:00:00,15.731846300000004,0.0001597,53.216,195.3501,66.0034,257.3793,0.00053703,0.00075378,0.0,0 STARLINK-3257,1 50203U 21125AZ  22021.91667824  .00075378  00000-0  53703-3 0  9992,2 50203  53.2160 195.3501 0001597  66.0034 257.3793 15.73184630  3696,6727.939,91.534,350.87800000000016,348.73,0.0
50203.0,STARLINK-3257,PAYLOAD,2022-01-22 06:00:00,15.732189600000002,0.0001415,53.2159,193.6986,74.8555,337.4748,0.00035372,0.00049355,0.0,0 STARLINK-3257,1 50203U 21125AZ  22022.25001157  .00049355  00000-0  35372-3 0  9999,2 50203  53.2159 193.6986 0001415  74.8555 337.4748 15.73218960  5681,6727.840999999999,91.532,350.658,348.754,0.0
50203.0,STARLINK-3257,PAYLOAD,2022-01-22 14:00:01,15.73304164,0.0001415,53.2163,192.0495,73.6369,67.6603,-0.00047889,-0.00067591,0.0,0 STARLINK-3257,1 50203U 21125AZ  22022.58334491 -.00067591  00000-0 -47889-3 0  9995,2 50203  53.2163 192.0495 0001415  73.6369  67.6603 15.73304164  3664,6727.598000000001,91.527,350.415,348.511,0.0
50203.0,STARLINK-3257,PAYLOAD,2022-01-22 22:00:00,15.7321918,0.000137,53.2164,190.4015,59.8331,170.4988,0.00038226,0.00053414,0.0,0 STARLINK-3257,1 50203U 21125AZ  22022.91667824  .00053414  00000-0  38226-3 0  9993,2 50203  53.2164 190.4015 0001370  59.8331 170.4988 15.73219180  5798,6727.84,91.532,350.62699999999984,348.784,0.0
50203.0,STARLINK-3257,PAYLOAD,2022-01-23 06:00:00,15.73201567,0.0001377,53.2166,188.7499,68.3316,250.9806,0.00013651,0.00018582,0.0,0 STARLINK-3257,1 50203U 21125AZ  22023.25001157  .00018582  00000-0  13651-3 0  9994,2 50203  53.2166 188.7499 0001377  68.3316 250.9806 15.73201567  5840,6727.891,91.533,350.682,348.829,0.0
50203.0,STARLINK-3257,PAYLOAD,2022-01-23 14:00:01,15.73230948,0.0001395999999999,53.2167,187.1009,65.8735,342.3665,-0.00063214,-0.00088526,0.0,0 STARLINK-3257,1 50203U 21125AZ  22023.58334491 -.00088526  00000-0 -63214-3 0  9997,2 50203  53.2167 187.1009 0001396  65.8735 342.3665 15.73230948  3694,6727.807,91.531,350.611,348.733,0.0
50203.0,STARLINK-3257,PAYLOAD,2022-01-23 22:00:00,15.73160883,0.0001398,53.2161,185.4529,54.3641,82.8169,0.00057216,0.00080315,0.0,0 STARLINK-3257,1 50203U 21125AZ  22023.91667824  .00080315  00000-0  57216-3 0  9994,2 50203  53.2161 185.4529 0001398  54.3641  82.8169 15.73160883  5953,6728.007,91.535,350.81199999999984,348.931,0.0
50203.0,STARLINK-3257,PAYLOAD,2022-01-24 06:00:02,15.7314315,0.0001145,53.2165,183.7973,60.3306,165.7917,0.00052373,0.00073346,0.0,0 STARLINK-3257,1 50203U 21125AZ  22024.25002315  .00073346  00000-0  52373-3 0  9995,2 50203  53.2165 183.7973 0001145  60.3306 165.7917 15.73143150  6003,6728.057,91.536,350.6930000000001,349.152,0.0
50203.0,STARLINK-3257,PAYLOAD,2022-01-24 14:00:01,15.73201251,0.0001187,53.2162,182.1529,58.0409,256.8922,-3.098e-05,-4.965e-05,0.0,0 STARLINK-3257,1 50203U 21125AZ  22024.58334491 -.00004965  00000-0 -30980-4 0  9998,2 50203  53.2162 182.1529 0001187  58.0409 256.8922 15.73201251  3691,6727.892,91.533,350.555,348.958,0.0
50203.0,STARLINK-3257,PAYLOAD,2022-01-24 22:00:00,15.73191863,0.0001302,53.2161,180.5047,45.7258,358.1418,0.00048285,0.00067669,0.0,0 STARLINK-3257,1 50203U 21125AZ  22024.91667824  .00067669  00000-0  48285-3 0  9998,2 50203  53.2161 180.5047 0001302  45.7258 358.1418 15.73191863  6103,6727.918000000002,91.534,350.659,348.907,0.0
50203.0,STARLINK-3257,PAYLOAD,2022-01-25 14:00:01,15.73205783,0.0001157,53.2164,177.2045,43.6618,178.0981,2.0817e-05,2.303e-05,0.0,0 STARLINK-3257,1 50203U 21125AZ  22025.58334491  .00002303  00000-0  20817-4 0  9999,2 50203  53.2164 177.2045 0001157  43.6618 178.0981 15.73205783  3672,6727.879,91.533,350.522,348.965,0.0
50203.0,STARLINK-3257,PAYLOAD,2022-01-25 22:00:00,15.73212857,0.0001332,53.2158,175.5561,35.4301,275.28,0.0004293,0.00060095,0.0,0 STARLINK-3257,1 50203U 21125AZ  22025.91667824  .00060095  00000-0  42930-3 0  9996,2 50203  53.2158 175.5561 0001332  35.4301 275.2800 15.73212857  6260,6727.859,91.532,350.62,348.827,0.0
50203.0,STARLINK-3257,PAYLOAD,2022-01-26 14:00:01,15.73260513,0.0001281,53.2158,172.25599999999997,42.9669,85.7023,-0.00080774,-0.00112765,0.0,0 STARLINK-3257,1 50203U 21125AZ  22026.58334491 -.00112765  00000-0 -80774-3 0  9993,2 50203  53.2158 172.2560 0001281  42.9669  85.7023 15.73260513  6371,6727.723000000001,91.53,350.449,348.726,0.0
50203.0,STARLINK-3257,PAYLOAD,2022-01-26 22:00:00,15.73203367,0.0001348,53.2157,170.6073,33.021,184.5942,-0.00010498,-0.00015328,0.0,0 STARLINK-3257,1 50203U 21125AZ  22026.91667824 -.00015328  00000-0 -10498-3 0  9992,2 50203  53.2157 170.6073 0001348  33.0210 184.5942 15.73203367  6426,6727.886,91.533,350.657,348.844,0.0
50203.0,STARLINK-3257,PAYLOAD,2022-01-26 22:36:13,15.73213124,0.0001839,53.2164,170.4818,30.1879,329.9247,-0.0001372,-0.00019842,0.0,0 STARLINK-3257,1 50203U 21125AZ  22026.94182390 -.00019842  00000-0 -13720-3 0  9991,2 50203  53.2164 170.4818 0001839  30.1879 329.9247 15.73213124  9577,6727.858,91.532,350.96,348.486,0.0
50203.0,STARLINK-3257,PAYLOAD,2022-01-27 04:00:00,15.7321396,0.0001485,53.2175,169.3548,58.8641,135.1594,-9.5862e-05,-0.0001406,0.0,0 STARLINK-3257,1 50203U 21125AZ  22027.16667824 -.00014060  00000-0 -95862-4 0  9991,2 50203  53.2175 169.3548 0001485  58.8641 135.1594 15.73213960  6462,6727.855,91.532,350.719,348.721,0.0
50203.0,STARLINK-3257,PAYLOAD,2022-01-27 13:51:02,15.73185181,0.0001955,53.2164,167.338,29.9886,330.1246,8.659799999999999e-05,0.00011542,0.0,0 STARLINK-3257,1 50203U 21125AZ  22027.57711370  .00011542  00000-0  86598-4 0  9998,2 50203  53.2164 167.3380 0001955  29.9886 330.1246 15.73185181  9674,6727.937,91.534,351.11800000000005,348.487,0.0
50203.0,STARLINK-3257,PAYLOAD,2022-01-27 22:00:00,15.73233037,0.0001688,53.2156,165.6585,38.9591,85.3829,-0.00024925,-0.00035505,0.0,0 STARLINK-3257,1 50203U 21125AZ  22027.91667824 -.00035505  00000-0 -24925-3 0  9992,2 50203  53.2156 165.6585 0001688  38.9591  85.3829 15.73233037  6586,6727.801,91.531,350.802,348.53,0.0
50203.0,STARLINK-3257,PAYLOAD,2022-01-28 10:00:00,15.73196072,0.0001416,53.2159,163.1827,43.1217,34.6266,0.0002548,0.00035284,0.0,0 STARLINK-3257,1 50203U 21125AZ  22028.41667824  .00035284  00000-0  25480-3 0  9997,2 50203  53.2159 163.1827 0001416  43.1217  34.6266 15.73196072  6650,6727.906,91.533,350.724,348.819,0.0
